OSCAR 7 (AO-7)          
1 07530U 74089B   16033.21718032 -.00000014  00000-0  18623-3 0  9999
2 07530 101.5562   7.3866 0011751 214.4327 134.7387 12.53619365886078
UOSAT 2 (UO-11)         
1 14781U 84021B   16033.18592616  .00000284  00000-0  41607-4 0  9993
2 14781  97.7700  89.2151 0009534  46.8597 313.3412 14.82656475716109
LUSAT (LO-19)           
1 20442U 90005G   16032.40229493  .00000053  00000-0  35361-4 0  9991
2 20442  98.5332 329.3276 0011571 185.2331 174.8734 14.32794436359761
EYESAT-1 (AO-27)        
1 22825U 93061C   16033.47856938  .00000062  00000-0  41400-4 0  9992
2 22825  98.7415 349.0214 0008468   2.5006 357.6216 14.29935154165844
ITAMSAT (IO-26)         
1 22826U 93061D   16032.85410572  .00000075  00000-0  46229-4 0  9992
2 22826  98.7357 348.5343 0008864 355.3165   4.7933 14.30257390165917
RADIO ROSTO (RS-15)     
1 23439U 94085A   16031.91876281 -.00000033  00000-0  28060-3 0  9996
2 23439  64.8189 311.5491 0162086 331.7542  27.4663 11.27564533868941
JAS-2 (FO-29)           
1 24278U 96046B   16033.48051150 -.00000046  00000-0 -10832-4 0  9995
2 24278  98.5760 336.4993 0350146 193.8661 165.2669 13.53063148961162
TECHSAT 1B (GO-32)      
1 25397U 98043D   16033.06915893  .00000024  00000-0  29377-4 0  9992
2 25397  98.5515 341.6596 0002000  50.6126 309.5229 14.23580940912498
ISS (ZARYA)             
1 25544U 98067A   16033.44756072  .00006597  00000-0  10585-3 0  9997
2 25544  51.6439  14.9531 0006877  70.7370  68.0848 15.54377025983862
PCSAT (NO-44)           
1 26931U 01043C   16033.20068708  .00000006  00000-0  34302-4 0  9995
2 26931  67.0524 303.7373 0007461 273.3126  86.7122 14.30382019748696
SAUDISAT 1C (SO-50)     
1 27607U 02058C   16032.96518434  .00000365  00000-0  72353-4 0  9997
2 27607  64.5533 217.0237 0079063 244.4685 114.8227 14.75036878705174
CUTE-1 (CO-55)          
1 27844U 03031E   16033.01226557  .00000138  00000-0  82554-4 0  9993
2 27844  98.6947  43.2460 0009692   3.1875 356.9362 14.21907964653099
CUBESAT XI-IV (CO-57)   
1 27848U 03031J   16032.87902876  .00000123  00000-0  76176-4 0  9992
2 27848  98.7044  43.1396 0009757  11.6055 348.5345 14.21539958652973
MOZHAYETS 4 (RS-22)     
1 27939U 03042A   16033.47438334  .00000323  00000-0  66844-4 0  9998
2 27939  97.8651 190.5405 0013511  21.1833 338.9962 14.66304421659934
HAMSAT (VO-52)          
1 28650U 05017B   16033.11077329  .00001107  00000-0  12570-3 0  9994
2 28650  97.5952  20.4979 0023752 353.9907   6.1021 14.88024058581639
CUBESAT XI-V (CO-58)    
1 28895U 05043F   16033.14292649  .00000446  00000-0  95397-4 0  9995
2 28895  97.8228 213.9887 0015744 290.8458  69.1058 14.63076874547219
CUTE-1.7+APD II (CO-65) 
1 32785U 08021C   16033.21796575  .00000706  00000-0  83777-4 0  9990
2 32785  97.6205  72.9798 0013998  32.5959 327.6119 14.87363351420412
DELFI-C3 (DO-64)        
1 32789U 08021G   16032.83033182  .00004858  00000-0  37288-3 0  9996
2 32789  97.6270  94.4098 0012756  13.2395 346.9162 15.02175816421521
SEEDS II (CO-66)        
1 32791U 08021J   16032.83071177  .00001148  00000-0  12599-3 0  9992
2 32791  97.6220  75.3090 0014200  24.7736 335.4161 14.89473555420493
YUBILEINY (RS-30)       
1 32953U 08025A   16033.50503506  .00000010  00000-0 -13620-7 0  9995
2 32953  82.5014 191.0112 0018260 298.2235  61.7005 12.43066674349225
PRISM (HITOMI)          
1 33493U 09002B   16033.51228288  .00001266  00000-0  12324-3 0  9992
2 33493  98.2316 247.1133 0014954 296.6810  63.2881 14.94432663380965
KKS-1 (KISEKI)          
1 33499U 09002H   16033.18543087  .00000501  00000-0  82621-4 0  9997
2 33499  98.2659 179.8427 0009639 163.3420 196.8106 14.74855123377506
SWISSCUBE               
1 35932U 09051B   16033.18353810  .00000389  00000-0  99852-4 0  9996
2 35932  98.4296 158.8055 0007419   0.5561 359.5643 14.55698282337426
BEESAT                  
1 35933U 09051C   16033.28497982  .00000375  00000-0  96259-4 0  9990
2 35933  98.4316 159.9327 0005927  16.5801 343.5588 14.55854825337530
ITUPSAT 1               
1 35935U 09051E   16033.27470915  .00000358  00000-0  93801-4 0  9999
2 35935  98.4424 160.1691 0008034   4.4504 355.6762 14.55073620337385
XIWANG-1 (HOPE-1)       
1 36122U 09072B   16033.46455354 -.00000059  00000-0 -43517-4 0  9991
2 36122 100.1630  74.7169 0006900 311.3500  48.7020 13.16332192294758
TISAT 1                 
1 36799U 10035E   16033.23324231  .00001499  00000-0  16359-3 0  9996
2 36799  98.0216 141.5441 0013103 167.1733 192.9820 14.89422975301183
JUGNU                   
1 37839U 11058B   16032.96371832  .00000314  00000-0  25628-4 0  9991
2 37839  19.9605 249.4878 0018990  58.8179  79.0083 14.12518422222743
SRMSAT                  
1 37841U 11058D   16032.10241551  .00000314  00000-0  27782-4 0  9997
2 37841  19.9722 286.0865 0011770 326.7212 182.6835 14.10521598222318
M-CUBED & EXP-1 PRIME   
1 37855U 11061F   16032.90041212  .00004238  00000-0  23996-3 0  9997
2 37855 101.7179   5.0130 0192352 118.9126 243.1527 14.99758157231551
HORYU 2                 
1 38340U 12025D   16033.49243602  .00000886  00000-0  14034-3 0  9998
2 38340  98.3421  14.8095 0013112  84.3638 275.9065 14.74814797199470
AAUSAT3                 
1 39087U 13009B   16033.45803419  .00000206  00000-0  87210-4 0  9997
2 39087  98.5888 235.9741 0012364 350.4998   9.5956 14.35286212153681
STRAND-1                
1 39090U 13009E   16032.52269332  .00000109  00000-0  54030-4 0  9994
2 39090  98.5927 235.4821 0009048 353.8081   6.2991 14.34867130153538
SOMP                    
1 39134U 13015E   16033.17468359  .00004559  00000-0  25428-3 0  9993
2 39134  64.8718  40.2942 0013809 234.4542 125.5296 15.14763122153508
BEESAT-2                
1 39136U 13015G   16033.18013906  .00003552  00000-0  21227-3 0  9995
2 39136  64.8728  44.7951 0014035 231.4096 128.5772 15.12671332153425
CUBEBUG-1 (CAPITAN BETO)
1 39153U 13018D   16033.24050217  .00000770  00000-0  10951-3 0  9991
2 39153  98.0040 121.8678 0016230 226.3768 133.6098 14.79695073149491
ZACUBE-1 (TSHEPISOSAT)  
1 39417U 13066B   16033.14290367  .00000674  00000-0  92613-4 0  9997
2 39417  97.7000  91.7059 0061317 106.6744 254.1211 14.80198374118647
TRITON-1                
1 39427U 13066M   16033.16296726  .00000511  00000-0  90411-4 0  9999
2 39427  97.6853  75.0355 0115849 151.8504 208.9030 14.67029824117578
GOMX 1                  
1 39430U 13066Q   16033.48856953  .00000439  00000-0  89505-4 0  9993
2 39430  97.6824  64.6815 0152639 183.2701 176.7516 14.58434314116946
HUMSAT-D                
1 39433U 13066T   16033.47995789  .00001637  00000-0  17203-3 0  9992
2 39433  97.7144 103.7636 0033205  80.1290 280.3674 14.90415913119407
EAGLE 2                 
1 39436U 13066W   16033.18117620  .00019952  00000-0  10316-2 0  9999
2 39436  97.7247 116.9281 0017939  40.1722 320.0833 15.16159282120222
VELOX-PII               
1 39438U 13066Y   16032.79797352  .00000626  00000-0  91806-4 0  9996
2 39438  97.6958  87.6488 0072873 117.2088 243.6574 14.77113672118356
CUBEBUG-2 (LO-74)       
1 39440U 13066AA  16033.41483656  .00000686  00000-0  10373-3 0  9993
2 39440  97.6936  85.3340 0082697 122.8640 238.0564 14.74976790118260
FUNCUBE-1 (AO-73)       
1 39444U 13066AE  16033.15271954  .00000824  00000-0  11016-3 0  9993
2 39444  97.7008  92.1736 0060601 105.2334 255.5590 14.80825271117442
UWE-3                   
1 39446U 13066AG  16033.42867355  .00000717  00000-0  10323-3 0  9992
2 39446  97.6961  88.5119 0072444 114.3481 246.5315 14.77493671117241
SPROUT                  
1 39770U 14029E   16032.39374897  .00001887  00000-0  22831-3 0  9997
2 39770  97.8700 131.2496 0010130 165.8745 194.2757 14.84833376 91637
DUCHIFAT-1              
1 40021U 14033M   16033.28368665  .00001524  00000-0  16808-3 0  9993
2 40021  97.9408 299.4863 0013953 144.2809 215.9344 14.88929715 88037
CHUBUSAT-1              
1 40300U 14070C   16033.56225363  .00002297  00000-0  11187-3 0  9995
2 40300  97.4354 115.8270 0022846  53.8312  58.5797 15.19153029 68730
NUDT-PHONESAT           
1 40900U 15049B   16033.55671708  .00005563  00000-0  29850-3 0  9990
2 40900  97.4471  43.8130 0015862 160.9382 297.9679 15.15243363 20528
ZDPS 2A                 
1 40901U 15049C   16033.53942303  .00002645  00000-0  14806-3 0  9994
2 40901  97.4612  43.9314 0015280 155.2666 303.6605 15.14207206 20515
ZDPS 2B                 
1 40902U 15049D   16033.55310179  .00003008  00000-0  16853-3 0  9995
2 40902  97.4468  43.6536 0015357 152.2563 306.8479 15.14061760 20513
XW-2A                   
1 40903U 15049E   16033.54094711  .00005024  00000-0  14995-3 0  9991
2 40903  97.4519  47.1297 0014446 260.3401 218.4759 15.35004921 20736
KAITUO 1A               
1 40904U 15049F   16033.53684248  .00001378  00000-0  80815-4 0  9994
2 40904  97.4550  43.6754 0016114 149.2737 326.5932 15.13317178 20496
2015-049G               
1 40905U 15049G   16033.53980492  .00001326  00000-0  79631-4 0  9992
2 40905  97.4491  43.4105 0017415 138.7704 320.0359 15.12481264 20490
XW-2C                   
1 40906U 15049H   16033.51780887  .00002123  00000-0  12367-3 0  9995
2 40906  97.4550  43.5644 0016821 141.0634  10.2246 15.12961694 20487
XW-2D                   
1 40907U 15049J   16033.52101013  .00002210  00000-0  12864-3 0  9994
2 40907  97.4513  43.5004 0016178 139.2619  12.2711 15.12953578 20485
LILACSAT 2              
1 40908U 15049K   16033.51012786  .00001622  00000-0  97447-4 0  9999
2 40908  97.4618  43.5352 0017533 134.4793  16.5622 15.12157775 20476
XW-2E                   
1 40909U 15049L   16033.53959324  .00002976  00000-0  16889-3 0  9993
2 40909  97.4544  43.6759 0015938 143.7268 340.3132 15.13604963 20497
XW-2F                   
1 40910U 15049M   16033.52103331  .00003072  00000-0  17640-3 0  9997
2 40910  97.4548  43.5631 0017369 138.4942  21.9766 15.13143887 20376
XW-2B                   
1 40911U 15049N   16033.45134738  .00002055  00000-0  11994-3 0  9991
2 40911  97.4567  43.5224 0015816 139.4025   0.3422 15.12952110 20370
KAITUO 1B               
1 40912U 15049P   16033.54871382  .00003700  00000-0  20100-3 0  9992
2 40912  97.4549  43.9652 0017855 136.3991 322.9641 15.14991487 20416
AAUSAT 5                
1 40948U 98067GZ  16033.37947458  .00142227  00000-0  83920-3 0  9998
2 40948  51.6366   6.4947 0009402  83.6379 276.5692 15.77149214 18754
GOMX 3                  
1 40949U 98067HA  16033.28263961  .00026048  00000-0  26002-3 0  9999
2 40949  51.6404  10.3967 0007731  73.7080 286.4765 15.65417394 18694
